NORAD_CAT_ID,OBJECT_NAME,OBJECT_TYPE,EPOCH,MEAN_MOTION,ECCENTRICITY,INCLINATION,RA_OF_ASC_NODE,ARG_OF_PERICENTER,MEAN_ANOMALY,BSTAR,MEAN_MOTION_DOT,MEAN_MOTION_DDOT,TLE_LINE0,TLE_LINE1,TLE_LINE2,SEMIMAJOR_AXIS,PERIOD,APOGEE,PERIGEE,DECAYED
51104.0,STARLINK-3366,PAYLOAD,2022-08-13 12:55:47,15.08834331,0.0001437,53.2188,23.6735,68.4949,291.6196,-1.2897e-06,-3.08e-06,0.0,0 STARLINK-3366,1 51104U 22005A   22225.53874616 -.00000308  00000-0 -12897-5 0  9998,2 51104  53.2188  23.6735 0001437  68.4949 291.6196 15.08834331 31993,6917.898,95.438,540.757,538.769,0.0
51104.0,STARLINK-3366,PAYLOAD,2022-08-13 16:06:34,15.08833992,0.000149,53.2189,23.0788,66.5,293.6149,-6.5792e-06,-3.93e-06,0.0,0 STARLINK-3366,1 51104U 22005A   22225.67122697 -.00000393  00000-0 -65792-5 0  9994,2 51104  53.2189  23.0788 0001490  66.5000 293.6149 15.08833992 32018,6917.899,95.438,540.795,538.7330000000002,0.0
51104.0,STARLINK-3366,PAYLOAD,2022-08-14 11:11:12,15.08824513,0.0001576999999999,53.2188,19.5107,66.233,293.8827,-3.2502e-05,-8.05e-06,0.0,0 STARLINK-3366,1 51104U 22005A   22226.46611558 -.00000805  00000-0 -32502-4 0  9991,2 51104  53.2188  19.5107 0001577  66.2330 293.8827 15.08824513 32138,6917.928000000001,95.439,540.884,538.702,0.0
51104.0,STARLINK-3366,PAYLOAD,2022-08-14 17:32:44,15.08827803,0.000156,53.2188,18.3214,65.5339,294.5816,-7.8627e-06,-4.13e-06,0.0,0 STARLINK-3366,1 51104U 22005A   22226.73107476 -.00000413  00000-0 -78627-5 0  9994,2 51104  53.2188  18.3214 0001560  65.5339 294.5816 15.08827803 32172,6917.918000000002,95.438,540.862,538.703,0.0
51104.0,STARLINK-3366,PAYLOAD,2022-08-15 04:40:26,15.08837263,0.0001465999999999,53.2188,16.2399,68.369,291.7458,-6.4245e-05,-1.31e-05,0.0,0 STARLINK-3366,1 51104U 22005A   22227.19475236 -.00001310  00000-0 -64245-4 0  9994,2 51104  53.2188  16.2399 0001466  68.3690 291.7458 15.08837263 33352,6917.889,95.438,540.768,538.74,0.0
51104.0,STARLINK-3366,PAYLOAD,2022-08-15 12:37:22,15.08835452,0.0001473,53.2186,14.753,65.7383,294.3763,6.3697e-05,7.26e-06,0.0,0 STARLINK-3366,1 51104U 22005A   22227.52595100  .00000726  00000-0  63697-4 0  9992,2 51104  53.2186  14.7530 0001473  65.7383 294.3763 15.08835452 32296,6917.894,95.438,540.778,538.74,0.0
51104.0,STARLINK-3366,PAYLOAD,2022-08-16 12:28:09,15.0882855,0.0001498,53.2189,10.2924,64.5322,295.5825,7.0351e-05,8.32e-06,0.0,0 STARLINK-3366,1 51104U 22005A   22228.51955844  .00000832  00000-0  70351-4 0  9990,2 51104  53.2189  10.2924 0001498  64.5322 295.5825 15.08828550 32444,6917.915,95.438,540.817,538.744,0.0
51104.0,STARLINK-3366,PAYLOAD,2022-08-16 18:49:42,15.08836411,0.0001501999999999,53.2187,9.1031,64.542,295.5728,9.3563e-05,1.201e-05,0.0,0 STARLINK-3366,1 51104U 22005A   22228.78451402  .00001201  00000-0  93563-4 0  9991,2 51104  53.2187   9.1031 0001502  64.5420 295.5728 15.08836411 33597,6917.891,95.438,540.795,538.717,0.0
51104.0,STARLINK-3366,PAYLOAD,2022-08-17 10:43:32,15.08847545,0.0001486999999999,53.2186,6.1293,64.559,295.5556,8.874100000000001e-05,1.125e-05,0.0,0 STARLINK-3366,1 51104U 22005A   22229.44690747  .00001125  00000-0  88741-4 0  9999,2 51104  53.2186   6.1293 0001487  64.5590 295.5556 15.08847545 32580,6917.857,95.437,540.751,538.694,0.0
51104.0,STARLINK-3366,PAYLOAD,2022-08-18 04:12:47,15.08838995,0.0001486999999999,53.2188,2.8581,65.0735,295.0412,7.3825e-05,8.87e-06,0.0,0 STARLINK-3366,1 51104U 22005A   22230.17555043  .00000887  00000-0  73825-4 0  9991,2 51104  53.2188   2.8581 0001487  65.0735 295.0412 15.08838995 33803,6917.8830000000025,95.438,540.7769999999998,538.72,0.0
51104.0,STARLINK-3366,PAYLOAD,2022-08-18 12:09:42,15.08848404,0.000153,53.2189,1.3717,64.6198,295.4952,0.00014603,2.037e-05,0.0,0 STARLINK-3366,1 51104U 22005A   22230.50674193  .00002037  00000-0  14603-3 0  9993,2 51104  53.2189   1.3717 0001530  64.6198 295.4952 15.08848404 33850,6917.855,95.437,540.778,538.661,0.0
51104.0,STARLINK-3366,PAYLOAD,2022-08-19 12:00:28,15.0885496,0.0001538,53.219,356.9117,64.655,295.4601,6.3505e-05,7.23e-06,0.0,0 STARLINK-3366,1 51104U 22005A   22231.50033239  .00000723  00000-0  63505-4 0  9990,2 51104  53.2190 356.9117 0001538  64.6550 295.4601 15.08854960 32893,6917.835,95.437,540.764,538.636,0.0
51104.0,STARLINK-3366,PAYLOAD,2022-08-20 03:54:21,15.08832157,0.0001511,53.219,353.9382,53.892,306.2212,-0.00010992,-2.037e-05,0.0,0 STARLINK-3366,1 51104U 22005A   22232.16275359 -.00002037  00000-0 -10992-3 0  9997,2 51104  53.2190 353.9382 0001511  53.8920 306.2212 15.08832157 34105,6917.904,95.438,540.815,538.724,0.0
51104.0,STARLINK-3366,PAYLOAD,2022-08-20 13:26:40,15.08831641,0.00015,53.2191,352.1541,65.35600000000001,294.7588,-0.00010337,-1.932e-05,0.0,0 STARLINK-3366,1 51104U 22005A   22232.56019480 -.00001932  00000-0 -10337-3 0  9998,2 51104  53.2191 352.1541 0001500  65.3560 294.7588 15.08831641 33057,6917.906,95.438,540.809,538.7330000000002,0.0
51104.0,STARLINK-3366,PAYLOAD,2022-08-21 03:45:08,15.08883451,0.0001423,53.2193,349.4792,44.7324,315.3782,-0.00066732,-0.00010905,0.0,0 STARLINK-3366,1 51104U 22005A   22233.15634674 -.00010905  00000-0 -66732-3 0  9992,2 51104  53.2193 349.4792 0001423  44.7324 315.3782 15.08883451 34254,6917.748000000001,95.435,540.597,538.628,0.0
51104.0,STARLINK-3366,PAYLOAD,2022-08-21 13:17:28,15.08818328,0.0001726,53.2192,347.6941,85.8592,274.2598,0.00028285,4.214e-05,0.0,0 STARLINK-3366,1 51104U 22005A   22233.55379641  .00004214  00000-0  28285-3 0  9991,2 51104  53.2192 347.6941 0001726  85.8592 274.2598 15.08818328 34314,6917.946999999999,95.439,541.006,538.618,0.0
51104.0,STARLINK-3366,PAYLOAD,2022-08-22 02:00:33,15.08818514,0.0001616,53.2192,345.3162,56.8372,303.2775,6.7089e-05,7.79e-06,0.0,0 STARLINK-3366,1 51104U 22005A   22234.08372624  .00000779  00000-0  67089-4 0  9992,2 51104  53.2192 345.3162 0001616  56.8372 303.2775 15.08818514 33288,6917.946,95.439,540.929,538.693,0.0
51104.0,STARLINK-3366,PAYLOAD,2022-08-23 00:15:58,15.0882419,0.0001401,53.2192,341.154,80.5069,279.6082,5.6507e-05,6.11e-06,0.0,0 STARLINK-3366,1 51104U 22005A   22235.01109173  .00000611  00000-0  56507-4 0  9991,2 51104  53.2192 341.1540 0001401  80.5069 279.6082 15.08824190 34534,6917.929,95.439,540.763,538.825,0.0
51104.0,STARLINK-3366,PAYLOAD,2022-08-23 11:23:40,15.08833821,0.0001598,53.2181,339.0701,68.461,291.6552,4.7706e-05,4.71e-06,0.0,0 STARLINK-3366,1 51104U 22005A   22235.47476864  .00000471  00000-0  47706-4 0  9990,2 51104  53.2181 339.0701 0001598  68.4610 291.6552 15.08833821 34606,6917.899,95.438,540.87,538.659,0.0
51104.0,STARLINK-3366,PAYLOAD,2022-08-24 11:14:26,15.08838177,0.0001406999999999,53.219,334.6108,57.29,302.8228,0.0001414,1.963e-05,0.0,0 STARLINK-3366,1 51104U 22005A   22236.46836712  .00001963  00000-0  14140-3 0  9994,2 51104  53.2190 334.6108 0001407  57.2900 302.8228 15.08838177 33642,6917.886,95.438,540.724,538.778,0.0
51104.0,STARLINK-3366,PAYLOAD,2022-08-25 06:19:03,15.08847127,0.0001446,53.2188,331.0425,57.5803,302.5329,0.00012338,1.677e-05,0.0,0 STARLINK-3366,1 51104U 22005A   22237.26324074  .00001677  00000-0  12338-3 0  9995,2 51104  53.2188 331.0425 0001446  57.5803 302.5329 15.08847127 34870,6917.859,95.437,540.724,538.7230000000002,0.0
51104.0,STARLINK-3366,PAYLOAD,2022-08-25 11:05:13,15.08849495,0.000146,53.2188,330.1506,57.4837,302.6296,0.00013512,1.864e-05,0.0,0 STARLINK-3366,1 51104U 22005A   22237.46195783  .00001864  00000-0  13512-3 0  9993,2 51104  53.2188 330.1506 0001460  57.4837 302.6296 15.08849495 33796,6917.851,95.437,540.726,538.706,0.0
51104.0,STARLINK-3366,PAYLOAD,2022-08-26 01:23:41,15.08842003,0.0001478,53.2189,327.4749,56.6736,303.4397,-2.3938e-07,-2.92e-06,0.0,0 STARLINK-3366,1 51104U 22005A   22238.05812466 -.00000292  00000-0 -23938-6 0  9995,2 51104  53.2189 327.4749 0001478  56.6736 303.4397 15.08842003 34995,6917.874,95.437,540.762,538.717,0.0
51104.0,STARLINK-3366,PAYLOAD,2022-08-26 10:56:00,15.08843378,0.0001517,53.2187,325.6905,57.8283,302.2856,1.0758e-05,-1.17e-06,0.0,0 STARLINK-3366,1 51104U 22005A   22238.45556225 -.00000117  00000-0  10758-4 0  9996,2 51104  53.2187 325.6905 0001517  57.8283 302.2856 15.08843378 33948,6917.87,95.437,540.785,538.686,0.0
51104.0,STARLINK-3366,PAYLOAD,2022-08-27 10:46:46,15.088484,0.0001565999999999,53.2187,321.2303,58.82100000000001,301.2935,8.2091e-05,1.019e-05,0.0,0 STARLINK-3366,1 51104U 22005A   22239.44915152  .00001019  00000-0  82091-4 0  9994,2 51104  53.2187 321.2303 0001566  58.8210 301.2935 15.08848400 34092,6917.855,95.437,540.803,538.636,0.0
51104.0,STARLINK-3366,PAYLOAD,2022-08-27 15:32:56,15.0884609,0.0001645,53.2187,320.3393,54.1885,305.926,5.2467e-05,5.47e-06,0.0,0 STARLINK-3366,1 51104U 22005A   22239.64787351  .00000547  00000-0  52467-4 0  9993,2 51104  53.2187 320.3393 0001645  54.1885 305.9260 15.08846090 34125,6917.861999999999,95.437,540.865,538.589,0.0
51104.0,STARLINK-3366,PAYLOAD,2022-08-28 10:37:34,15.08839851,0.0001726,53.2186,316.7709,54.2318,305.8834,3.3059e-05,2.38e-06,0.0,0 STARLINK-3366,1 51104U 22005A   22240.44275841  .00000238  00000-0  33059-4 0  9992,2 51104  53.2186 316.7709 0001726  54.2318 305.8834 15.08839851 35355,6917.880999999999,95.438,540.94,538.552,0.0
51104.0,STARLINK-3366,PAYLOAD,2022-08-28 15:23:43,15.08842235,0.0001675,53.2186,315.8785,56.0882,304.0269,3.8672e-05,3.27e-06,0.0,0 STARLINK-3366,1 51104U 22005A   22240.64147629  .00000327  00000-0  38672-4 0  9991,2 51104  53.2186 315.8785 0001675  56.0882 304.0269 15.08842235 34271,6917.874,95.437,540.8969999999998,538.58,0.0
51104.0,STARLINK-3366,PAYLOAD,2022-08-29 04:06:48,15.08849197,0.0001743,53.2191,313.4991,68.0228,292.0949,-6.902e-06,-3.98e-06,0.0,0 STARLINK-3366,1 51104U 22005A   22241.17139203 -.00000398  00000-0 -69020-5 0  9991,2 51104  53.2191 313.4991 0001743  68.0228 292.0949 15.08849197 35460,6917.852,95.437,540.923,538.511,0.0
